NORAD_CAT_ID,OBJECT_NAME,OBJECT_TYPE,EPOCH,MEAN_MOTION,ECCENTRICITY,INCLINATION,RA_OF_ASC_NODE,ARG_OF_PERICENTER,MEAN_ANOMALY,BSTAR,MEAN_MOTION_DOT,MEAN_MOTION_DDOT,TLE_LINE0,TLE_LINE1,TLE_LINE2,SEMIMAJOR_AXIS,PERIOD,APOGEE,PERIGEE,DECAYED
49171.0,STARLINK-3107,PAYLOAD,2023-09-28 14:40:42,14.98332644,0.0002957,70.0032,26.2355,274.8135,85.2687,0.00020108,2.307e-05,0.0,0 STARLINK-3107,1 49171U 21082AT  23271.61160014  .00002307  00000-0  20108-3 0  9995,2 49171  70.0032  26.2355 0002957 274.8135  85.2687 14.98332644113366,6950.185,96.107,574.105,569.995,0.0
49171.0,STARLINK-3107,PAYLOAD,2023-09-28 17:52:58,14.9833729,0.0002942,70.0033,25.8988,274.9219,85.1604,0.00027535,3.195e-05,0.0,0 STARLINK-3107,1 49171U 21082AT  23271.74511754  .00003195  00000-0  27535-3 0  9997,2 49171  70.0033  25.8988 0002942 274.9219  85.1604 14.98337290113384,6950.17,96.107,574.08,569.991,0.0
49171.0,STARLINK-3107,PAYLOAD,2023-09-29 11:30:27,14.98333358,0.0002817,70.0024,24.0493,274.8641,85.2196,0.00010909,1.209e-05,0.0,0 STARLINK-3107,1 49171U 21082AT  23272.47947989  .00001209  00000-0  10909-3 0  9992,2 49171  70.0024  24.0493 0002817 274.8641  85.2196 14.98333358113495,6950.183,96.107,574.005,570.09,0.0
49171.0,STARLINK-3107,PAYLOAD,2023-09-29 16:18:50,14.9833642,0.0002732,70.0025,23.5444,271.9458,88.1388,0.00013254,1.489e-05,0.0,0 STARLINK-3107,1 49171U 21082AT  23272.67975662  .00001489  00000-0  13254-3 0  9999,2 49171  70.0025  23.5444 0002732 271.9458  88.1388 14.98336420113528,6950.173,96.107,573.937,570.139,0.0
49171.0,STARLINK-3107,PAYLOAD,2023-09-30 00:19:30,14.98363438,0.0002878,70.0028,22.7025,272.2009,87.882,-0.00048461,-5.875e-05,0.0,0 STARLINK-3107,1 49171U 21082AT  23273.01354381 -.00005875  00000-0 -48461-3 0  9990,2 49171  70.0028  22.7025 0002878 272.2009  87.8820 14.98363438113575,6950.089,96.105,573.955,569.954,0.0
49171.0,STARLINK-3107,PAYLOAD,2023-09-30 09:56:19,14.98334273,0.0002579,70.0028,21.6929,265.2221,94.8644,9.6256e-05,1.056e-05,0.0,0 STARLINK-3107,1 49171U 21082AT  23273.41411622  .00001056  00000-0  96256-4 0  9997,2 49171  70.0028  21.6929 0002579 265.2221  94.8644 14.98334273113636,6950.18,96.107,573.837,570.252,0.0
49171.0,STARLINK-3107,PAYLOAD,2023-10-01 13:10:34,14.98351695,0.000272,70.0014,18.8297,263.6487,96.4362,0.00024866,2.877e-05,0.0,0 STARLINK-3107,1 49171U 21082AT  23274.54901609  .00002877  00000-0  24866-3 0  9990,2 49171  70.0014  18.8297 0002720 263.6487  96.4362 14.98351695113802,6950.126,96.106,573.881,570.1,0.0
49171.0,STARLINK-3107,PAYLOAD,2023-10-01 16:22:50,14.98358753,0.0002962,70.0006,18.4923,268.6556,91.4264,0.00030657,3.57e-05,0.0,0 STARLINK-3107,1 49171U 21082AT  23274.68252853  .00003570  00000-0  30657-3 0  9991,2 49171  70.0006  18.4923 0002962 268.6556  91.4264 14.98358753113825,6950.104,96.105,574.028,569.91,0.0
49171.0,STARLINK-3107,PAYLOAD,2023-10-02 00:23:32,14.98334624,0.0003119,70.0016,17.6518,265.3612,94.7191,2.6692e-05,2.26e-06,0.0,0 STARLINK-3107,1 49171U 21082AT  23275.01634656  .00000226  00000-0  26692-4 0  9994,2 49171  70.0016  17.6518 0003119 265.3612  94.7191 14.98334624113870,6950.179,96.107,574.211,569.876,0.0
49171.0,STARLINK-3107,PAYLOAD,2023-10-02 10:00:21,14.98317138,0.000298,70.0023,16.6411,265.1592,94.9227,-0.00024584,-3.024e-05,0.0,0 STARLINK-3107,1 49171U 21082AT  23275.41691505 -.00003024  00000-0 -24584-3 0  9992,2 49171  70.0023  16.6411 0002980 265.1592  94.9227 14.98317138113939,6950.233,96.108,574.169,570.026,0.0
49171.0,STARLINK-3107,PAYLOAD,2023-10-02 14:48:45,14.98324139,0.0003048,70.0017,16.1357,264.9725,95.1086,-0.00017253,-2.151e-05,0.0,0 STARLINK-3107,1 49171U 21082AT  23275.61719205 -.00002151  00000-0 -17253-3 0  9997,2 49171  70.0017  16.1357 0003048 264.9725  95.1086 14.98324139113965,6950.211,96.107,574.194,569.958,0.0
49171.0,STARLINK-3107,PAYLOAD,2023-10-03 13:14:38,14.9833382,0.0003146,70.0015,13.7802,264.458,95.622,0.00085136,0.00010081,0.0,0 STARLINK-3107,1 49171U 21082AT  23276.55183261  .00010081  00000-0  85136-3 0  9992,2 49171  70.0015  13.7802 0003146 264.4580  95.6220 14.98333820114103,6950.181,96.107,574.233,569.86,0.0
49171.0,STARLINK-3107,PAYLOAD,2023-10-03 14:50:46,14.9833834,0.0003126,70.0015,13.6118,264.8201,95.2602,0.0010808,0.00012829,0.0,0 STARLINK-3107,1 49171U 21082AT  23276.61859239  .00012829  00000-0  10808-2 0  9999,2 49171  70.0015  13.6118 0003126 264.8201  95.2602 14.98338340114117,6950.167,96.106,574.205,569.859,0.0
49171.0,STARLINK-3107,PAYLOAD,2023-10-03 16:26:54,14.98342863,0.0003135,70.0016,13.4435,264.4957,95.5845,0.0012982,0.00015436,0.0,0 STARLINK-3107,1 49171U 21082AT  23276.68535199  .00015436  00000-0  12982-2 0  9994,2 49171  70.0016  13.4435 0003135 264.4957  95.5845 14.98342863114120,6950.153,96.106,574.197,569.839,0.0
49171.0,STARLINK-3107,PAYLOAD,2023-10-04 10:04:22,14.98341562,0.0003072,70.0016,11.5919,265.2502,94.8306,0.00055549,6.543e-05,0.0,0 STARLINK-3107,1 49171U 21082AT  23277.41970963  .00006543  00000-0  55549-3 0  9994,2 49171  70.0016  11.5919 0003072 265.2502  94.8306 14.98341562114232,6950.157,96.106,574.157,569.887,0.0
49171.0,STARLINK-3107,PAYLOAD,2023-10-04 13:16:38,14.98360267,0.0003303,70.001,11.2546,270.3032,89.7749,0.001212,0.0001441,0.0,0 STARLINK-3107,1 49171U 21082AT  23277.55322322  .00014410  00000-0  12120-2 0  9998,2 49171  70.0010  11.2546 0003303 270.3032  89.7749 14.98360267114250,6950.099,96.105,574.26,569.669,0.0
49171.0,STARLINK-3107,PAYLOAD,2023-10-04 16:28:54,14.98369074,0.0003325,70.0012,10.9178,270.675,89.4028,0.0016249,0.00019369,0.0,0 STARLINK-3107,1 49171U 21082AT  23277.68673980  .00019369  00000-0  16249-2 0  9995,2 49171  70.0012  10.9178 0003325 270.6750  89.4028 14.98369074114277,6950.072,96.104,574.248,569.626,0.0
49171.0,STARLINK-3107,PAYLOAD,2023-10-05 10:06:23,14.98329467,0.0003358,70.0014,9.0665,276.7166,83.361,-7.9031e-05,-1.036e-05,0.0,0 STARLINK-3107,1 49171U 21082AT  23278.42110850 -.00001036  00000-0 -79031-4 0  9994,2 49171  70.0014   9.0665 0003358 276.7166  83.3610 14.98329467114387,6950.195,96.107,574.393,569.726,0.0
49171.0,STARLINK-3107,PAYLOAD,2023-10-05 13:18:39,14.98331584,0.0003448,70.0004,8.7285,272.2187,87.8578,-2.3454e-05,-3.73e-06,0.0,0 STARLINK-3107,1 49171U 21082AT  23278.55462705 -.00000373  00000-0 -23454-4 0  9998,2 49171  70.0004   8.7285 0003448 272.2187  87.8578 14.98331584114402,6950.188,96.107,574.449,569.657,0.0
49171.0,STARLINK-3107,PAYLOAD,2023-10-05 16:30:55,14.98334535,0.0003256,70.001,8.3927,267.7922,92.2865,7.1838e-05,7.64e-06,0.0,0 STARLINK-3107,1 49171U 21082AT  23278.68814602  .00000764  00000-0  71838-4 0  9990,2 49171  70.0010   8.3927 0003256 267.7922  92.2865 14.98334535114421,6950.179,96.107,574.307,569.781,0.0
49171.0,STARLINK-3107,PAYLOAD,2023-10-06 10:08:25,14.98327585,0.0002948,70.0024,6.5425,265.1805,94.9018,5.55e-05,5.69e-06,0.0,0 STARLINK-3107,1 49171U 21082AT  23279.42251242  .00000569  00000-0  55500-4 0  9999,2 49171  70.0024   6.5425 0002948 265.1805  94.9018 14.98327585114536,6950.2,96.107,574.114,570.016,0.0
49171.0,STARLINK-3107,PAYLOAD,2023-10-06 13:20:41,14.9832954,0.0002908,70.0018,6.2057,269.5314,90.5512,0.00013636,1.534e-05,0.0,0 STARLINK-3107,1 49171U 21082AT  23279.55603253  .00001534  00000-0  13636-3 0  9992,2 49171  70.0018   6.2057 0002908 269.5314  90.5512 14.98329540114552,6950.194,96.107,574.08,570.038,0.0
49171.0,STARLINK-3107,PAYLOAD,2023-10-06 14:56:49,14.98332419,0.0002864,70.002,6.0371,263.8432,96.2401,0.00019029,2.178e-05,0.0,0 STARLINK-3107,1 49171U 21082AT  23279.62279106  .00002178  00000-0  19029-3 0  9993,2 49171  70.0020   6.0371 0002864 263.8432  96.2401 14.98332419114561,6950.185,96.107,574.041,570.06,0.0
49171.0,STARLINK-3107,PAYLOAD,2023-10-07 13:22:42,14.98335062,0.0002904,70.0018,3.6815,265.9911,94.0916,0.00040373,4.728e-05,0.0,0 STARLINK-3107,1 49171U 21082AT  23280.55743213  .00004728  00000-0  40373-3 0  9991,2 49171  70.0018   3.6815 0002904 265.9911  94.0916 14.98335062114704,6950.177,96.107,574.061,570.024,0.0
49171.0,STARLINK-3107,PAYLOAD,2023-10-07 14:58:50,14.98336885,0.0002915,70.002,3.5131,267.1696,92.9129,0.00039552,4.63e-05,0.0,0 STARLINK-3107,1 49171U 21082AT  23280.62419112  .00004630  00000-0  39552-3 0  9996,2 49171  70.0020   3.5131 0002915 267.1696  92.9129 14.98336885114711,6950.172,96.107,574.063,570.011,0.0
49171.0,STARLINK-3107,PAYLOAD,2023-10-08 10:12:27,14.98331159,0.000263,70.0019,1.4917,271.1238,88.9619,0.00015672,1.778e-05,0.0,0 STARLINK-3107,1 49171U 21082AT  23281.42531477  .00001778  00000-0  15672-3 0  9991,2 49171  70.0019   1.4917 0002630 271.1238  88.9619 14.98331159114830,6950.189,96.107,573.882,570.226,0.0
49171.0,STARLINK-3107,PAYLOAD,2023-10-08 13:24:43,14.98334835,0.0002936,70.0014,1.1553,271.0382,89.0441,0.0001958,2.244e-05,0.0,0 STARLINK-3107,1 49171U 21082AT  23281.55883179  .00002244  00000-0  19580-3 0  9995,2 49171  70.0014   1.1553 0002936 271.0382  89.0441 14.98334835114857,6950.178,96.107,574.084,570.002,0.0
49171.0,STARLINK-3107,PAYLOAD,2023-10-08 15:00:51,14.98336364,0.0002903,70.0019,0.9873,271.4661,88.6165,0.00022749,2.623e-05,0.0,0 STARLINK-3107,1 49171U 21082AT  23281.62559081  .00002623  00000-0  22749-3 0  9997,2 49171  70.0019   0.9873 0002903 271.4661  88.6165 14.98336364114860,6950.173,96.107,574.056,570.021,0.0
49171.0,STARLINK-3107,PAYLOAD,2023-10-09 13:26:43,14.98337675,0.0002844,70.0016,358.63,267.8653,92.2181,0.00017762,2.027e-05,0.0,0 STARLINK-3107,1 49171U 21082AT  23282.56022968  .00002027  00000-0  17762-3 0  9997,2 49171  70.0016 358.6300 0002844 267.8653  92.2181 14.98337675115001,6950.169,96.107,574.011,570.058,0.0
49171.0,STARLINK-3107,PAYLOAD,2023-10-09 15:02:51,14.98339738,0.0002822,70.0017,358.4617,267.9673,92.1163,0.00022306,2.57e-05,0.0,0 STARLINK-3107,1 49171U 21082AT  23282.62698871  .00002570  00000-0  22306-3 0  9999,2 49171  70.0017 358.4617 0002822 267.9673  92.1163 14.98339738115012,6950.163,96.106,573.989,570.066,0.0
